Dealer_ID,Dealership,Address,City,State,Zip
1,Hansen,84 Lotheville St,Fairbanks,Alaska,99790
2,Kuhlman-Hessel,77 Comm Ave,Gastonia,North Carolina,28055
3,Pach and Sons,75 Tenny St,Akron,Ohio,44393
4,Roma-Hickle,89 Muir Plaza,San Rafael,California,94913
5,Raynor Group,7 Dwight Center,Boise,Idaho,83732
6,McClure-Bayer,4 Crownhardt St,Cincinnati,Ohio,45238
7,Ritchie Group,4 Reinke Plaza,Raleigh,North Carolina,27605
8,Watts,963 Arms Rd,Fort Worth,Texas,76110
9,Wilkinson,37 John St,Saint Paul,Minnesota,55188
10,Sauer and Sons,3 Messier Rd,Wilkes Barre,Pennsylvania,18768
11,Conroy-Hirthe,8 Nevada Ave,Fresno,California,93704
12,Fritsch-Brekke,7 Crownhardt St,Aurora,Colorado,80015
13,Walker Batz,0 Clarendon St,Omaha,Nebraska,68179
14,Luettgen-Maggio,22 Dorton Rd,Roanoke,Virginia,24034
15,Koepp-Brekke,5 Porter Lane,Columbia,South Carolina,29225
16,Berge,8 North Hill,Santa Fe,New Mexico,87592
17,Bergstrom,9 Regan Rd,Fairfield,Connecticut,16825
18,Jacobi-Pagac,20 Alpine St,Lexington,Kentucky,40581
19,Haag LLC,5 Superior St,Stockton,California,95298
20,Swan,38 Chive Hill,Chicago,Illinois,60614
21,Mueller-Gott,2 Myrtle Crossing,Birmingham,Alabama,35236
22,Kerluke-Dickens,84 Melvin Pass,Houston,Texas,77035
23,Wilderman,2 Comm Rd,Springfield,Missouri,65810
24,Barrows,05 Muir Place,Baton Rouge,Louisiana,70836
25,Windler,76 Upham Rd,Amarillo,Texas,79182
26,Zetterburg,2 Park Meadow,Little Rock,Arkansas,72209
27,Armstrong,35 Beilfuss St,Chicago,Illinois,60614
28,Corkery LLC,95 Dryden Rd,Richmond,Virginia,23293
29,Muller Group,500 Florence St,Springfield,Missouri,65898
30,Bruen,97 Nobel St,Augusta,Georgia,30919
